1 43478U 18047C   23333.81839747  .00001012  00000-0  29486-3 0  9993
2 43478  86.4474 117.3343 0002038  92.7904 267.3530 14.43291046290941
1 43479U 18047D   23333.80837915  .00000752  00000-0  26156-3 0  9999
2 43479  86.3949 117.1980 0002133  85.7404 274.4036 14.34228587289146
1 43480U 18047E   23333.81474374  .00000886  00000-0  30934-3 0  9995
2 43480  86.3952 117.1844 0001775  98.7506 261.3891 14.34217206289138
1 43481U 18047F   23333.47222291  .00000664  00000-0  22982-3 0  9995
2 43481  86.3951 117.3949 0002000 102.1274 258.0146 14.34227096289077
1 43482U 18047G   23333.81210031  .00001018  00000-0  29645-3 0  9990
2 43482  86.4475 117.2401 0002036  91.1675 268.9759 14.43290658290934
1 43569U 18061A   23332.72038206  .00000646  00000-0  22349-3 0  9993
2 43569  86.3962  86.0651 0001769  87.0467 273.0931 14.34226678279864
1 43570U 18061B   23333.37367075  .00000688  00000-0  23867-3 0  9998
2 43570  86.3964  85.7553 0002251  95.7771 264.3681 14.34225440279980
1 43571U 18061C   23333.83033882  .00000723  00000-0  25129-3 0  9999
2 43571  86.3966  85.5734 0002185  94.4293 265.7152 14.34212081280025
1 43572U 18061D   23332.73943558  .00000627  00000-0  21671-3 0  9999
2 43572  86.3963  86.0581 0002304  87.5241 272.6219 14.34221639279880
1 43573U 18061E   23333.39902343  .00000686  00000-0  23798-3 0  9997
2 43573  86.3961  85.6972 0002028 101.5014 258.6409 14.34230432279949
1 43574U 18061F   23333.38002223  .00000927  00000-0  32380-3 0  9990
2 43574  86.3965  85.7933 0001690  91.6038 268.5351 14.34214584279992
1 43575U 18061G   23333.84936239 -.00002350  00000-0 -84655-3 0  9991
2 43575  86.3964  85.5419 0001784  88.5263 271.6137 14.34209256280032
1 43576U 18061H   23333.82400469  .00000713  00000-0  24746-3 0  9995
2 43576  86.3966  85.5583 0002205  95.9518 264.1929 14.34213092280018
1 43577U 18061J   23333.87472771  .00000687  00000-0  23832-3 0  9991
2 43577  86.3965  85.5628 0002163  90.3063 269.8381 14.34226970280074
1 43578U 18061K   23333.77326160  .00000689  00000-0  23907-3 0  9996
2 43578  86.3965  85.5620 0001825  87.9097 272.2308 14.34212931280024
1 43922U 19002A   23333.70298914  .00000590  00000-0  20346-3 0  9998
2 43922  86.3990  22.4647 0001920  87.3215 272.8201 14.34212464255667
1 43923U 19002B   23333.61322094  .00002121  00000-0  33227-3 0  9990
2 43923  86.6119  22.5344 0002339  93.0156 267.1329 14.72275317262330
1 43924U 19002C   23333.55710530  .00000590  00000-0  20351-3 0  9992
2 43924  86.3993  22.5763 0001981  91.2711 268.8712 14.34223717255580
1 43925U 19002D   23333.68396986  .00000588  00000-0  20275-3 0  9994
2 43925  86.3989  22.4501 0001980  95.4139 264.7283 14.34216389255590
1 43926U 19002E   23333.59601017  .00000912  00000-0  29172-3 0  9995
2 43926  86.4244  54.0925 0004020 139.9686 220.1809 14.38612314256432
1 43927U 19002F   23333.67762744  .00001802  00000-0  63625-3 0  9990
2 43927  86.3989  22.4579 0001983  90.0083 270.1340 14.34217951255590
1 43928U 19002G   23333.60700125  .00002146  00000-0  33621-3 0  9994
2 43928  86.1521   7.0254 0002377  93.1453 267.0035 14.72263871262322
1 43929U 19002H   23333.51906659  .00000572  00000-0  19715-3 0  9994
2 43929  86.4000  22.7273 0002214  90.2576 269.8874 14.34225733255569
1 43930U 19002J   23333.61922614  .00002122  00000-0  33245-3 0  9993
2 43930  86.6119  22.5367 0002482  94.8838 265.2662 14.72272110262346
1 43931U 19002K   23334.14061995  .00000459  00000-0  15668-3 0  9999
2 43931  86.3995  22.2792 0002174  89.6599 270.4846 14.34213811255658
1 44995U 97051ABM 21139.14053534  .00020596  00000-0  15176-2 0  9998
2 44995  86.3261 275.6534 0015103 202.2733 282.3331 15.03133242497017
1 46435U 97051ABN 23307.83481269  .00011688  00000-0  54597-2 0  9996
2 46435  86.2983 156.1639 0282035 188.8367 184.7130 14.01416313599924
1 46436U 97051ABP 21308.53834278  .00043449  00000-0  64544-2 0  9998
2 46436  86.3139 225.9623 0023889 353.7113 181.7360 14.74601076517743
1 46437U 97051ABQ 23020.10315378  .00942735  00000-0  24158-1 0  9992
2 46437  86.4926 159.2276 0022394 259.3253 100.5478 15.36459320610462
1 46734U 97051ABR 23333.33965712  .00004504  00000-0  15835-2 0  9993
2 46734  86.2638 327.4257 0043959 250.9396 175.8210 14.34209595523122
1 46804U 97051ABS 22075.17402168  .00007870  00000-0  29257-2 0  9998
2 46804  86.1650 224.6247 0115546 132.9018  40.4879 14.28351983495973
1 46961U 97051ABT 23041.99946266  .00153243  00000-0  20433-1 0  9990
2 46961  86.3856 133.5998 0045977 235.0107 124.6793 14.78035045 95207
1 46962U 97051ABU 23332.39936635  .00029106  00000-0  52012-2 0  9996
2 46962  86.3141  15.5691 0071408   2.4567  54.4214 14.65104756621405
1 46963U 97051ABV 23058.71403870  .00082494  00000-0  17535-1 0  9997
2 46963  86.2894  53.8578 0046080 140.1497 220.3111 14.57916406568289
1 46964U 97051ABW 23310.12134030  .00169191  00000-0  15572-1 0  9992
2 46964  86.2433 245.3386 0032971 128.9701 231.4473 14.93467317627169
1 46965U 97051ABX 23330.93223575  .00005964  00000-0  14888-2 0  9994
2 46965  86.3356 309.2730 0021581 330.7752  58.9136 14.51318339514012
1 46966U 97051ABY 23079.66215551  .00040061  00000-0  12080-1 0  9998
2 46966  86.4226 223.0217 0112691  71.1480 290.1898 14.38648404572024
1 46967U 97051ABZ 23120.68932245  .00071675  00000-0  46308-2 0  9990
2 46967  86.2238 275.1287 0017856 157.9005 202.3005 15.07780883603029
1 46968U 97051ACA 22073.25558646  .00239191  00000-0  70768-2 0  9995
2 46968  86.2560  75.4094 0016816  97.5994 262.7167 15.33813898312473
1 46969U 97051ACB 21353.13937548  .00065856  00000-0  40531-2 0  9995
2 46969  86.2227 147.6354 0012533 318.6924  41.3364 15.09658516417896
1 46970U 97051ACC 22118.59237359  .00148444  00000-0  10574-1 0  9998
2 46970  86.1999  72.2070 0026318 107.6890  14.9601 15.03613404453649
1 46971U 97051ACD 23333.24885712  .00015696  00000-0  32114-2 0  9990
2 46971  86.3397 310.8979 0016399 357.5030  61.4731 14.60644799532454
1 46972U 97051ACE 23332.39456199  .00003285  00000-0  94020-3 0  9995
2 46972  86.3918 358.5991 0011630  74.4562 349.5623 14.44771266507886
1 46973U 97051ACF 23326.74232680  .00078669  00000-0  20352-1 0  9998
2 46973  86.3684 131.0149 0133590 225.2993 133.7268 14.44206887491792
1 46974U 97051ACG 23330.01168654  .00026590  00000-0  10825-1 0  9993
2 46974  86.3093  65.2992 0126726 100.0940 261.4574 14.23047961467971
1 46975U 97051ACH 23109.09774213  .00163615  00000-0  13865-1 0  9997
2 46975  86.3823  53.2661 0017978  32.7406 338.3206 14.97021274455387
1 46976U 97051ACJ 23319.96445666  .00012404  00000-0  48436-2 0  9996
2 46976  86.4490 197.4631 0164716  56.9525   4.9585 14.22350188509079
1 46977U 97051ACK 23019.23954967  .00020837  00000-0  49676-2 0  9999
2 46977  86.1726  10.6160 0037374  12.1803 348.0297 14.53207203435549
1 46978U 97051ACL 23114.82412623  .00051930  00000-0  64900-2 0  9994
2 46978  86.2292 316.1707 0032898  79.6495 292.2081 14.81697102593459
1 46979U 97051ACM 23330.43237300  .00017978  00000-0  50320-2 0  9994
2 46979  86.3550  20.6481 0059405 266.6175  92.8230 14.44975609244992
1 46980U 97051ACN 22216.19652418  .00002016  00000-0  50086-3 0  9999
2 46980  86.3848 192.2850 0010496  25.7503 334.4222 14.51340114409956
1 46981U 97051ACP 22265.59664413  .00008226  00000-0  24108-2 0  9990
2 46981  86.3128 210.4963 0110111  70.4223  55.0665 14.40281876429087
1 46982U 97051ACQ 23173.26300081  .00046654  00000-0  42578-2 0  9990
2 46982  86.3732   2.6663 0007814 220.6170  70.0607 14.94842421349927
1 46983U 97051ACR 23198.37003194  .00421175  00000-0  95302-2 0  9993
2 46983  86.3485 346.1960 0012075 254.9169 105.0750 15.41466922493460
1 56726U 23068S   23333.29700834  .00000967  00000-0  27969-3 0  9990
2 56726  86.8641  66.6113 0003122  85.1056 275.0502 14.43587631 28156
1 56727U 23068T   23333.31307670  .00003133  00000-0  40837-3 0  9992
2 56727  86.1999  50.7180 0002145  92.0290 268.1177 14.80271532 28663
1 56728U 23068U   23333.98361683  .00003219  00000-0  41967-3 0  9990
2 56728  86.2001  50.4870 0002151  99.5377 260.6087 14.80277250 28768
1 56729U 23068V   23333.43748146  .00003219  00000-0  41970-3 0  9998
2 56729  86.5804  58.6949 0002112  93.8586 266.2877 14.80278308 28681
1 56730U 23068W   23334.17562479  .00003344  00000-0  43610-3 0  9997
2 56730  86.6809  59.9942 0002191 103.9122 256.2343 14.80286157 28792
1 57002U 97082T   23298.94634205  .00132325  00000-0  13882-1 0  9996
2 57002  86.3838  12.1682 0008740 289.9796  70.0488 14.88792400473892
1 57003U 97082U   23332.76011519  .00048292  00000-0  13177-1 0  9999
2 57003  86.2780 339.8172 0082962 284.0707  75.1283 14.45035565439545
